HELIOS 1B               
1 25977U 99064A   20246.03035718  .00000035  00000-0  11474-4 0  9998
2 25977  98.2906  43.6240 0002574  94.4984 265.6522 14.82491971117767
TERRA                   
1 25994U 99068A   20246.08031651  .00000022  00000-0  15007-4 0  9990
2 25994  98.2091 319.2829 0001303 109.0443 251.0903 14.57112725101470
SL-16 R/B               
1 26070U 00006B   20245.84307060 -.00000158  00000-0 -56316-4 0  9993
2 26070  71.0041  12.7283 0016441   0.3102 359.8028 14.15464390 63444
MTI                     
1 26102U 00014A   20246.21190526  .00005650  00000-0  81677-4 0  9995
2 26102  97.4918 132.1996 0006540 316.2861  43.7872 15.56353922136455
TITAN 4B R/B            
1 26474U 00047B   20245.67278944  .00000018  00000-0  12526-4 0  9993
2 26474  67.9924 225.8879 0051415 115.9781 244.6671 14.95981809 90723
ENVISAT                 
1 27386U 02009A   20246.03419706  .00000018  00000-0  19458-4 0  9991
2 27386  98.1379 249.0601 0001342  85.8078 337.7463 14.37990589969623
IDEFIX & ARIANE 42P R/B 
1 27422U 02021B   20245.90094317 -.00000017  00000-0  95771-5 0  9991
2 27422  98.3579 203.8294 0012564  10.9530 349.1924 14.29293076956087
AQUA                    
1 27424U 02022A   20245.90750580  .00000065  00000-0  24499-4 0  9995
2 27424  98.2061 185.4438 0002652  93.4317 338.1893 14.57113188975007
CZ-4B R/B               
1 27432U 02024C   20246.03844476 -.00000021  00000-0  13052-4 0  9995
2 27432  99.0901 249.5366 0049829 321.2873 104.3178 14.14096522944556
MIDORI II (ADEOS-II)    
1 27597U 02056A   20245.87015542  .00000010  00000-0  21458-4 0  9993
2 27597  98.5245 191.5551 0001981 101.8330 258.3074 14.27457685922716
H-2A R/B                
1 27601U 02056E   20245.89741235  .00000044  00000-0  30471-4 0  9998
2 27601  98.2212 277.7169 0073090  50.6862   1.0361 14.31965604925632
CZ-4B R/B               
1 28059U 03049C   20245.78219457  .00000002  00000-0  12237-4 0  9997
2 28059  98.4819 163.1649 0048851 265.2751  94.2864 14.52608525893897
CZ-2C R/B               
1 28222U 04012C   20245.89924738  .00000312  00000-0  22553-4 0  9993
2 28222  97.6840 208.6784 0048266 127.3533 289.0115 15.10449599897532
SL-16 R/B               
1 28353U 04021B   20245.87917321  .00000218  00000-0  13886-3 0  9999
2 28353  71.0016 139.0405 0006605 233.5939 126.4574 14.14239717837940
CZ-4B R/B               
1 28415U 04035C   20246.06606991  .00000663  00000-0  47316-4 0  9993
2 28415  97.6074 286.7774 0053094  91.3415 269.3896 15.06898142875175
CZ-2C R/B               
1 28480U 04046B   20246.12350650 -.00000027  00000-0  51047-5 0  9994
2 28480  98.0738 275.1079 0141840 358.6090  66.2908 14.25727717821363
ARIANE 5 R/B            
1 28499U 04049H   20245.91451005  .00000013  00000-0  89995-5 0  9996
2 28499  98.0587 347.9460 0092732  26.9643  86.5602 14.80042805847409
CZ-2D R/B               
1 28738U 05024B   20246.07979765  .00000402  00000-0  27001-4 0  9993
2 28738  97.3802 266.1025 0010232 280.7091  79.2988 15.12089062833007
SUZAKU (ASTRO-EII)      
1 28773U 05025A   20246.17217205  .00000843  00000-0  36521-4 0  9994
2 28773  31.3810 237.7807 0004566 258.5166 101.4968 15.17657313835603
ALOS (DAICHI)           
1 28931U 06002A   20245.96269827  .00000105  00000-0  29209-4 0  9995
2 28931  97.8508 227.9682 0000870 112.1807 247.9489 14.62735001778883
H-2A R/B                
1 28932U 06002B   20245.95195156  .00000467  00000-0  48678-4 0  9990
2 28932  98.3264 240.3102 0089943  71.5947 319.3127 14.92272126792556
AKARI (ASTRO-F)         
1 28939U 06005A   20245.94230674  .00004715  00000-0  12463-3 0  9996
2 28939  98.2381 228.8797 0093911  57.0811 303.9420 15.34595747792629
RESURS-DK 1             
1 29228U 06021A   20245.70669924  .00000069  00000-0  12534-4 0  9992
2 29228  69.9377 353.8778 0006323 316.2198  43.8461 15.02562823784202
GENESIS 1               
1 29252U 06029A   20245.88778241  .00000181  00000-0  18703-4 0  9998
2 29252  64.5224  51.5790 0005678  37.7610 322.3911 15.18200969779704
CZ-4B R/B               
1 29507U 06046C   20245.63909974 -.00000723  00000-0 -50948-4 0  9993
2 29507  97.7434 267.3447 0046505 265.7208  93.8701 15.00606408756840
CZ-2C R/B               
1 31114U 07010B   20245.58191119  .00000057  00000-0  45079-4 0  9997
2 31114  98.2536  93.3164 0060660  46.0613 314.5547 14.19329890693800
COSMO-SKYMED 1          
1 31598U 07023A   20246.23727993 -.00000015  00000-0  46964-5 0  9995
2 31598  97.8867  68.2795 0001466  89.8006 270.3348 14.82158835716206
GENESIS 2               
1 31789U 07028A   20245.88546197  .00000470  00000-0  33495-4 0  9995
2 31789  64.5030  93.3227 0035652 234.5952 125.1839 15.17328555726775
COSMOS 2428             
1 31792U 07029A   20246.05891331 -.00000309  00000-0 -14183-3 0  9998
2 31792  70.9034 112.0786 0010666 311.7689  48.2519 14.12290811679680
SL-16 R/B               
1 31793U 07029B   20245.94393358 -.00000203  00000-0 -81091-4 0  9998
2 31793  70.9741  85.6842 0002332 262.9894 196.1215 14.14436880680509
KORONAS-FOTON           
1 33504U 09003A   20245.81951343  .00000556  00000-0  27405-4 0  9992
2 33504  82.4436 146.8480 0019661  19.6585 340.5401 15.15690899639055
H-2A R/B                
1 38341U 12025E   20245.90688434  .00000133  00000-0  23195-4 0  9995
2 38341  98.5095  45.9120 0055194 347.6246  12.3607 14.84063926448709
CUSAT 2 & FALCON 9 R/B  
1 39271U 13055G   20245.86951213  .00006558  00000-0  15870-3 0  9992
2 39271  80.9687 184.7766 0583940 300.4091  54.0617 14.48936353361792
SL-4 R/B                
1 39679U 14021B   20245.93488021  .00000098  00000-0  22915-4 0  9990
2 39679  51.6165 112.4710 0171461 210.6396 148.4473 15.06470369350553
ALOS-2                  
1 39766U 14029A   20246.20679132 -.00000291  00000-0 -32065-4 0  9995
2 39766  97.9224 341.7055 0001529  92.4959 267.6434 14.79469033339043
CZ-2C R/B               
1 40306U 14071B   20245.85735975  .00003651  00000-0  78110-4 0  9994
2 40306  97.3296 193.0797 0013596 244.4405 115.5439 15.45383897325678
SL-27 R/B               
1 40354U 14084B   20245.91104111  .00001023  00000-0  26093-4 0  9994
2 40354  74.7364 229.9052 0036961  17.9418 342.3089 15.40329881319905
YAOGAN 29               
1 41038U 15069A   20246.15103855  .00000041  00000-0  12222-4 0  9997
2 41038  98.0151 234.0155 0001805  53.5167 306.6213 14.80457725257629
ASTRO-H (HITOMI)        
1 41337U 16012A   20246.12467275  .00000259  00000-0  14041-4 0  9996
2 41337  31.0046 243.6265 0012340 109.0831 251.1141 14.98703882249015
SHENZHOU-11 MODULE      
1 41868U 16061G   20245.70941559  .00170178  21850-4  18732-3 0  9992
2 41868  42.7864  15.4254 0015343 345.4153 109.7428 16.08672562218300
HXMT (HUIYAN)           
1 42758U 17034A   20246.11579160  .00000281  00000-0  31180-4 0  9993
2 42758  43.0204 335.4198 0009330 154.3913 274.0264 15.08879394177458
CZ-2C R/B               
1 43521U 18054D   20246.18849009  .00000604  00000-0  35081-4 0  9997
2 43521  35.1539  67.0383 0081840  74.2972 286.6752 15.11055518120766
AEOLUS                  
1 43600U 18066A   20246.04307287  .00033205  00000-0  12990-3 0  9996
2 43600  96.7186 251.2888 0005405  89.7506 270.4387 15.86929618117516
SAOCOM 1A               
1 43641U 18076A   20246.11051724  .00000028  00000-0  10032-4 0  9995
2 43641  97.8899  71.1301 0001473  79.8145 280.3236 14.82156249102955
CREW DRAGON DEMO-1 DEB  
1 44064U 19011B   20245.54640049  .00018133  00000-0  17416-3 0  9993
2 44064  51.6332 286.4414 0003722 359.6958   0.4035 15.66664976 84839
